{
  "type": "FeatureCollection",
  "features": [
    {
      "type": "Feature",
      "properties": {
        "norad_id": 37867,
        "name": "COSMOS 2476 (744)",
        "group": "glo-ops",
        "lat": -0.8194339821166459,
        "lon": 79.11167094499129,
        "alt_km": 19166.202710560116,
        "timestamp": "2025-12-03T06:58:43.498317+00:00",
        "meta_object_name": "COSMOS 2476 (744)",
        "meta_object_id": "2011-064A",
        "meta_epoch": "2025-12-02T19:57:36.313920",
        "meta_mean_motion": 2.13101261,
        "meta_eccentricity": 0.002396,
        "meta_inclination": 65.1573,
        "meta_ra_of_asc_node": 79.5068,
        "meta_arg_of_pericenter": 233.4935,
        "meta_mean_anomaly": 133.1658,
        "meta_ephemeris_type": 0,
        "meta_classification_type": "U",
        "meta_norad_cat_id": 37867,
        "meta_element_set_no": 999,
        "meta_rev_at_epoch": 10958,
        "meta_bstar": 0,
        "meta_mean_motion_dot": -2.2e-07,
        "meta_mean_motion_ddot": 0,
        "tle_line1": "1 37867U 11064A   25336.83167030 -.00000022  00000+0  00000+0 0  9993",
        "tle_line2": "2 37867  65.1573  79.5068 0023960 233.4935 133.1658  2.13101261109581"
      },
      "geometry": {
        "type": "Point",
        "coordinates": [
          79.11167094499129,
          -0.8194339821166459
        ]
      }
    },
    {
      "type": "Feature",
      "properties": {
        "norad_id": 37868,
        "name": "COSMOS 2477 (745)",
        "group": "glo-ops",
        "lat": 0.33976905444928224,
        "lon": -100.58905048448851,
        "alt_km": 19098.928550014094,
        "timestamp": "2025-12-03T06:58:43.498350+00:00",
        "meta_object_name": "COSMOS 2477 (745)",
        "meta_object_id": "2011-064B",
        "meta_epoch": "2025-12-01T05:34:43.743072",
        "meta_mean_motion": 2.1310269,
        "meta_eccentricity": 0.00209845,
        "meta_inclination": 65.1625,
        "meta_ra_of_asc_node": 79.6383,
        "meta_arg_of_pericenter": 233.8301,
        "meta_mean_anomaly": 166.8442,
        "meta_ephemeris_type": 0,
        "meta_classification_type": "U",
        "meta_norad_cat_id": 37868,
        "meta_element_set_no": 999,
        "meta_rev_at_epoch": 10954,
        "meta_bstar": 0,
        "meta_mean_motion_dot": -1.2e-07,
        "meta_mean_motion_ddot": 0,
        "tle_line1": "1 37868U 11064B   25335.23245073 -.00000012  00000+0  00000+0 0  9990",
        "tle_line2": "2 37868  65.1625  79.6383 0020984 233.8301 166.8442  2.13102690109542"
      },
      "geometry": {
        "type": "Point",
        "coordinates": [
          -100.58905048448851,
          0.33976905444928224
        ]
      }
    },
    {
      "type": "Feature",
      "properties": {
        "norad_id": 37869,
        "name": "COSMOS 2475 (743)",
        "group": "glo-ops",
        "lat": 39.4866648301525,
        "lon": -122.80111976621602,
        "alt_km": 19150.723246276862,
        "timestamp": "2025-12-03T06:58:43.498376+00:00",
        "meta_object_name": "COSMOS 2475 (743)",
        "meta_object_id": "2011-064C",
        "meta_epoch": "2025-12-01T05:41:50.555616",
        "meta_mean_motion": 2.13101369,
        "meta_eccentricity": 0.00260135,
        "meta_inclination": 65.1695,
        "meta_ra_of_asc_node": 79.658,
        "meta_arg_of_pericenter": 248.1873,
        "meta_mean_anomaly": 112.2788,
        "meta_ephemeris_type": 0,
        "meta_classification_type": "U",
        "meta_norad_cat_id": 37869,
        "meta_element_set_no": 999,
        "meta_rev_at_epoch": 10955,
        "meta_bstar": 0,
        "meta_mean_motion_dot": -1.2e-07,
        "meta_mean_motion_ddot": 0,
        "tle_line1": "1 37869U 11064C   25335.23739069 -.00000012  00000+0  00000+0 0  9994",
        "tle_line2": "2 37869  65.1695  79.6580 0026013 248.1873 112.2788  2.13101369109552"
      },
      "geometry": {
        "type": "Point",
        "coordinates": [
          -122.80111976621602,
          39.4866648301525
        ]
      }
    },
    {
      "type": "Feature",
      "properties": {
        "norad_id": 39155,
        "name": "COSMOS 2485 (747)",
        "group": "glo-ops",
        "lat": 41.79061425779748,
        "lon": 104.42606817969144,
        "alt_km": 19187.64057981727,
        "timestamp": "2025-12-03T06:58:43.498403+00:00",
        "meta_object_name": "COSMOS 2485 (747)",
        "meta_object_id": "2013-019A",
        "meta_epoch": "2025-12-02T06:58:21.505152",
        "meta_mean_motion": 2.13102877,
        "meta_eccentricity": 0.0024568,
        "meta_inclination": 65.3079,
        "meta_ra_of_asc_node": 80.2187,
        "meta_arg_of_pericenter": 229.0905,
        "meta_mean_anomaly": 130.6936,
        "meta_ephemeris_type": 0,
        "meta_classification_type": "U",
        "meta_norad_cat_id": 39155,
        "meta_element_set_no": 999,
        "meta_rev_at_epoch": 9808,
        "meta_bstar": 0,
        "meta_mean_motion_dot": -1.8e-07,
        "meta_mean_motion_ddot": 0,
        "tle_line1": "1 39155U 13019A   25336.29052668 -.00000018  00000+0  00000+0 0  9992",
        "tle_line2": "2 39155  65.3079  80.2187 0024568 229.0905 130.6936  2.13102877 98087"
      },
      "geometry": {
        "type": "Point",
        "coordinates": [
          104.42606817969144,
          41.79061425779748
        ]
      }
    },
    {
      "type": "Feature",
      "properties": {
        "norad_id": 39620,
        "name": "COSMOS 2492 (754)",
        "group": "glo-ops",
        "lat": 63.24129290990525,
        "lon": 25.840240952099688,
        "alt_km": 19145.362653133954,
        "timestamp": "2025-12-03T06:58:43.498418+00:00",
        "meta_object_name": "COSMOS 2492 (754)",
        "meta_object_id": "2014-012A",
        "meta_epoch": "2025-12-02T05:58:46.587648",
        "meta_mean_motion": 2.13103074,
        "meta_eccentricity": 0.0014167,
        "meta_inclination": 65.4137,
        "meta_ra_of_asc_node": 320.6266,
        "meta_arg_of_pericenter": 311.0108,
        "meta_mean_anomaly": 48.8746,
        "meta_ephemeris_type": 0,
        "meta_classification_type": "U",
        "meta_norad_cat_id": 39620,
        "meta_element_set_no": 999,
        "meta_rev_at_epoch": 9104,
        "meta_bstar": 0,
        "meta_mean_motion_dot": -3.3e-07,
        "meta_mean_motion_ddot": 0,
        "tle_line1": "1 39620U 14012A   25336.24915032 -.00000033  00000+0  00000+0 0  9998",
        "tle_line2": "2 39620  65.4137 320.6266 0014167 311.0108  48.8746  2.13103074 91048"
      },
      "geometry": {
        "type": "Point",
        "coordinates": [
          25.840240952099688,
          63.24129290990525
        ]
      }
    },
    {
      "type": "Feature",
      "properties": {
        "norad_id": 40001,
        "name": "COSMOS 2500 (755)",
        "group": "glo-ops",
        "lat": -46.57221243226467,
        "lon": -68.68065031851613,
        "alt_km": 19134.3001336477,
        "timestamp": "2025-12-03T06:58:43.498432+00:00",
        "meta_object_name": "COSMOS 2500 (755)",
        "meta_object_id": "2014-032A",
        "meta_epoch": "2025-12-01T22:51:13.641408",
        "meta_mean_motion": 2.13105853,
        "meta_eccentricity": 0.00082978,
        "meta_inclination": 65.3495,
        "meta_ra_of_asc_node": 320.3998,
        "meta_arg_of_pericenter": 219.081,
        "meta_mean_anomaly": 140.8682,
        "meta_ephemeris_type": 0,
        "meta_classification_type": "U",
        "meta_norad_cat_id": 40001,
        "meta_element_set_no": 999,
        "meta_rev_at_epoch": 8925,
        "meta_bstar": 0,
        "meta_mean_motion_dot": -3.1e-07,
        "meta_mean_motion_ddot": 0,
        "tle_line1": "1 40001U 14032A   25335.95224122 -.00000031  00000+0  00000+0 0  9993",
        "tle_line2": "2 40001  65.3495 320.3998 0008297 219.0810 140.8682  2.13105853 89251"
      },
      "geometry": {
        "type": "Point",
        "coordinates": [
          -68.68065031851613,
          -46.57221243226467
        ]
      }
    },
    {
      "type": "Feature",
      "properties": {
        "norad_id": 40315,
        "name": "COSMOS 2501 (702K)",
        "group": "glo-ops",
        "lat": 58.72421006076189,
        "lon": -37.63016456469668,
        "alt_km": 19130.047834399767,
        "timestamp": "2025-12-03T06:58:43.498449+00:00",
        "meta_object_name": "COSMOS 2501 (702K)",
        "meta_object_id": "2014-075A",
        "meta_epoch": "2025-11-30T19:17:52.497312",
        "meta_mean_motion": 2.13101305,
        "meta_eccentricity": 0.00201676,
        "meta_inclination": 63.6137,
        "meta_ra_of_asc_node": 197.2386,
        "meta_arg_of_pericenter": 204.7979,
        "meta_mean_anomaly": 155.1955,
        "meta_ephemeris_type": 0,
        "meta_classification_type": "U",
        "meta_norad_cat_id": 40315,
        "meta_element_set_no": 999,
        "meta_rev_at_epoch": 8562,
        "meta_bstar": 0,
        "meta_mean_motion_dot": 1e-06,
        "meta_mean_motion_ddot": 0,
        "tle_line1": "1 40315U 14075A   25334.80407983  .00000100  00000+0  00000+0 0  9995",
        "tle_line2": "2 40315  63.6137 197.2386 0020167 204.7979 155.1955  2.13101305 85629"
      },
      "geometry": {
        "type": "Point",
        "coordinates": [
          -37.63016456469668,
          58.72421006076189
        ]
      }
    }
  ]
}